GSAT0216 (GALILEO 20)   
1 43056U 17079B   26199.98202045  .00000050  00000+0  00000+0 0  9992
2 43056  55.0671 220.6312 0004931 278.2350  81.7476  1.70474524 53548
GSAT0217 (GALILEO 21)   
1 43057U 17079C   26198.44308914  .00000047  00000+0  00000+0 0  9991
2 43057  55.0656 220.6714 0004217 291.8974  68.1010  1.70474425 53507
GSAT0218 (GALILEO 22)   
1 43058U 17079D   26196.90343938  .00000053  00000+0  00000+0 0  9993
2 43058  55.0660 220.7113 0005401 274.7995  85.1927  1.70474408 53503
BEIDOU-3 M7             
1 43107U 18003A   26196.27249963 -.00000070  00000+0  00000+0 0  9999
2 43107  54.3016 301.3358 0004346  99.7203 260.3603  1.86228000 57870
BEIDOU-3 M8             
1 43108U 18003B   26200.51245594 -.00000097  00000+0  00000+0 0  9998
2 43108  54.2900 301.1685 0003135 256.0524 103.9481  1.86230816 57966
BEIDOU-3 M4             
1 43207U 18018A   26195.04916456 -.00000038  00000+0  00000+0 0  9992
2 43207  56.6746  62.2635 0007449  28.5883 331.5267  1.86230761 57243
BEIDOU-3 M3             
1 43208U 18018B   26198.33739683 -.00000055  00000+0  00000+0 0  9992
2 43208  56.6769  62.1579 0007300 348.2235  11.8303  1.86230933 57301
BEIDOU-3 M9             
1 43245U 18029A   26200.16628568 -.00000092  00000+0  00000+0 0  9990
2 43245  54.1624 298.8290 0001194 190.0285 170.0081  1.86228215 56496
BEIDOU-3 M10            
1 43246U 18029B   26197.95265421 -.00000077  00000+0  00000+0 0  9991
2 43246  54.1629 298.9337 0003239  37.5825 322.4793  1.86229048 56434
IRNSS-1I                
1 43286U 18035A   26199.73725451  .00000063  00000+0  00000+0 0  9998
2 43286  28.8267  73.7035 0018376 178.8797   4.4154  1.00273309 30393
COSMOS 2527 [GLONASS-M] 
1 43508U 18053A   26199.99452881 -.00000039  00000+0  00000+0 0  9991
2 43508  65.5952  72.8467 0006387 228.7015 131.3138  2.13102002 62950
BEIDOU-2 IGSO-7         
1 43539U 18057A   26197.82826650 -.00000084  00000+0  00000+0 0  9998
2 43539  55.1987 162.7987 0104914 237.9691 299.1450  1.00242392 29427
GSAT0221 (GALILEO 25)   
1 43564U 18060A   26198.56730463 -.00000104  00000+0  00000+0 0  9991
2 43564  57.1585 340.9609 0002701 283.6812  76.2771  1.70476136 49688
GSAT0222 (GALILEO 26)   
1 43565U 18060B   26198.78700514 -.00000104  00000+0  00000+0 0  9990
2 43565  57.1619 340.9586 0002860 235.0008 124.9612  1.70475909 49733
GSAT0219 (GALILEO 23)   
1 43566U 18060C   26199.59444257 -.00000105  00000+0  00000+0 0  9991
2 43566  57.1608 340.9384 0001857 295.5518  64.4195  1.70476160 49723
GSAT0220 (GALILEO 24)   
1 43567U 18060D   26198.05570153 -.00000103  00000+0  00000+0 0  9995
2 43567  57.1613 340.9792 0002156 287.6741  72.2898  1.70475831 49682
BEIDOU-3 M5             
1 43581U 18062A   26200.32436034  .00000066  00000+0  00000+0 0  9993
2 43581  54.0864 181.2111 0005632 294.4430  65.4730  1.86228604 54233
BEIDOU-3 M6             
1 43582U 18062B   26200.18797593  .00000065  00000+0  00000+0 0  9997
2 43582  54.0864 181.2053 0005419  11.3965 348.5899  1.86227922 54234
BEIDOU-3 M12            
1 43602U 18067A   26200.12642207  .00000064  00000+0  00000+0 0  9999
2 43602  54.1815 179.9574 0007969  30.3786 329.6402  1.86227554 53713
BEIDOU-3 M11            
1 43603U 18067B   26200.26157532  .00000065  00000+0  00000+0 0  9998
2 43603  54.1790 179.9163 0004694  13.4853 346.5003  1.86227048 53745
BEIDOU-3 M13            
1 43622U 18072A   26200.21625115 -.00000072  00000+0  00000+0 0  9996
2 43622  56.6525  61.6028 0005743 334.8734  25.1634  1.86231229 53252
BEIDOU-3 M14            
1 43623U 18072B   26200.08168025 -.00000071  00000+0  00000+0 0  9993
2 43623  56.6545  61.6019 0005504  12.0189 348.0594  1.86231055 53247
BEIDOU-3 M16            
1 43647U 18078A   26197.01487644 -.00000071  00000+0  00000+0 0  9994
2 43647  54.0618 298.9748 0006597  39.6301 320.4557  1.86232227 52697
BEIDOU-3 M15            
1 43648U 18078B   26199.29193201 -.00000087  00000+0  00000+0 0  9997
2 43648  54.0554 298.8949 0003447  57.5875 302.4853  1.86232396 52758
BEIDOU-3 G1             
1 43683U 18085A   26200.60253037 -.00000114  00000+0  00000+0 0  9997
2 43683   2.9489  96.4955 0008103 356.9143 220.8682  1.00272547 28386
COSMOS 2529 [GLONASS-M] 
1 43687U 18086A   26200.09070738  .00000071  00000+0  00000+0 0  9991
2 43687  64.2975 191.5171 0012059 256.3246 103.5401  2.13101994 59966
BEIDOU-3 M17            
1 43706U 18093A   26200.25904154  .00000066  00000+0  00000+0 0  9991
2 43706  54.1701 181.2081 0010055 294.9008 244.8377  1.86228397 52136
BEIDOU-3 M18            
1 43707U 18093B   26197.70663610  .00000042  00000+0  00000+0 0  9990
2 43707  54.1709 181.2870 0008156 323.7143  36.1996  1.86226527 52087
NAVSTAR 77 (USA 289)    
1 43873U 18109A   26200.16356391 -.00000040  00000+0  00000+0 0  9991
2 43873  55.7011  90.9247 0038701 197.0809 335.0982  2.00563121 55718
BEIDOU-3 IGSO-1         
1 44204U 19023A   26197.32034861 -.00000209  00000+0  00000+0 0  9991
2 44204  58.7368  37.3490 0025911 224.0979 267.2124  1.00282972  7507
BEIDOU-2 G8             
1 44231U 19027A   26200.62475226 -.00000252  00000+0  00000+0 0  9995
2 44231   1.7387  74.5178 0009671 282.7668 309.5542  1.00270519 26401
